C/2011 G1 (McNaught),h,09/15.9013/2011,162.2395,152.9804,355.0159,1.000664,2.162227,2000,12.0,4.0
# From MPC 95730
C/2011 J2 (LINEAR),h,12/25.5762/2013,122.8051,163.9435,85.3286,1.001309,3.443849,2000,5.5,3.6
# From MPEC 2015-K84
C/2011 J2-B (LINEAR),h,12/25.4532/2013,122.8077,163.9399,85.2859,1.002071,3.443050,2000,9.0,3.6
# From unp
C/2011 J2-C (LINEAR),h,12/25.5458/2013,122.8031,163.9451,85.3031,1.002107,3.442888,2000,11.0,3.6
# From MPC 75713
C/2011 J3 (LINEAR),e,114.4543,21.5759,27.8587,19.65320,0.0113124,0.92628305,20.2131,12/16.0/2015,2000,g 15.0,4.0
# From MPC 82317
P/2011 JB15 (Spacewatch-Boattini),e,19.1574,153.7365,110.5856,7.344092,0.0495219,0.31778820,70.6790,12/16.0/2015,2000,g  9.0,4.0
# From MPC 75516
C/2011 K1 (Schwartz-Holvorcem),e,122.5986,70.6665,166.8908,3893,0.0000041,0.99913444,0.0000,04/20.4639/2011,2000,g 12.0,4.0
# From MPC 96864
C/2011 KP36 (Spacewatch),e,18.9866,173.4005,180.6105,38.39578,0.0041427,0.87281933,359.3248,12/16.0/2015,2000,g  4.5,4.0
# From MPC 83518
C/2011 L1 (McNaught),e,65.4957,252.2633,294.3877,11.02580,0.0269209,0.79733623,49.0740,12/16.0/2015,2000,g 11.0,4.0
# From MPC 78588
C/2011 L2 (McNaught),e,104.2981,131.3679,256.9869,8775,0.0000012,0.99977816,0.0000,10/30.5137/2011,2000,g 12.5,4.0
# From MPC 77405
C/2011 L3 (McNaught),e,87.1307,307.7570,27.6430,1062,0.0000285,0.99818745,0.0000,08/08.8601/2011,2000,g 12.5,4.0
# From MPC 94278
C/2011 L4 (PANSTARRS),h,03/10.0116/2013,84.0828,65.8110,333.6811,1.000022,0.302613,2000,5.5,4.0
# From MPC 82718
C/2011 L6 (Boattini),e,171.4431,214.4337,331.3488,30385,0.0000002,0.99977673,0.0000,01/18.4535/2011,2000,g  9.0,4.0
# From MPC 75714
C/2011 M1 (LINEAR),h,09/06.8092/2011,70.1587,324.6954,119.7572,1.002466,0.902702,2000,12.0,4.0
# From MPC 87913
P/2011 N1 (ASH),e,35.6873,77.6485,330.6559,6.263236,0.0628790,0.54411738,81.5263,12/16.0/2015,2000,g 11.5,4.0
# From MPC 75714
P/2011 NO1 (Elenin),e,15.2549,296.0716,263.5481,5.519530,0.0760065,0.77603393,135.9702,12/16.0/2015,2000,g 15.0,4.0
# From MPC 76569
C/2011 N2 (McNaught),e,33.6966,273.9615,356.9264,1258,0.0000221,0.99796917,0.0000,10/18.6753/2011,2000,g 11.5,4.0
# From MPC 87476
C/2011 O1 (LINEAR),e,76.5256,89.8009,232.3486,714.3861,0.0000516,0.99455369,0.0000,08/17.7848/2012,2000,g  7.0,4.0
# From MPC 78186
P/2011 P1 (McNaught),e,5.6449,4.3072,349.2275,7.496449,0.0480198,0.32423981,95.1192,12/16.0/2015,2000,g  9.0,4.0
# From MPC 84931
C/2011 P2 (PANSTARRS),e,9.0032,203.9821,75.9400,9.713977,0.0325543,0.36870023,62.6657,12/16.0/2015,2000,g  8.5,4.0
# From MPC 79867
C/2011 Q1 (PANSTARRS),e,94.9096,142.2387,135.8528,4122,0.0000037,0.99835720,0.0000,06/29.2955/2011,2000,g  9.5,4.0
# From MPC 79342
C/2011 Q2 (McNaught),e,37.1667,287.1257,34.8892,901.5948,0.0000364,0.99849560,0.0000,01/17.8244/2012,2000,g 10.0,4.0
# From MPC 77806
P/2011 Q3 (McNaught),e,6.0467,32.1245,311.0969,4.966755,0.0890420,0.53307923,142.2748,12/16.0/2015,2000,g 13.5,4.0
# From MPC 79342
C/2011 Q4 (SWAN),e,147.8662,252.0693,1.8572,41.17704,0.0037301,0.97288291,0.0000,09/19.2508/2011,2000,g 12.5,4.0
# From MPC 88325
C/2011 R1 (McNaught),e,116.1684,221.3521,308.7878,49113,0.0000001,0.99995766,0.0000,10/19.1056/2012,2000,g  6.5,4.0
# From MPC 90269
P/2011 R3 (Novichonok-Gerke),e,19.2507,190.3864,224.3163,4.816808,0.0932320,0.26325790,126.7321,12/16.0/2015,2000,g 11.0,4.0
# From MPC 91611
P/2011 S1 (Gibbs),e,2.6818,218.9120,193.6082,8.632579,0.0388591,0.20146422,18.4488,12/16.0/2015,2000,g  8.0,4.0
# From MPC 80897
C/2011 S2 (Kowalski),e,17.5789,288.0392,192.3090,16.44397,0.0147807,0.93199935,22.3408,12/16.0/2015,2000,g 15.5,4.0
# From MPC 78186
P/2011 U1 (PANSTARRS),e,15.2442,134.9792,353.3563,4.052354,0.1208212,0.41770135,153.7823,12/16.0/2015,2000,g 14.5,4.0
# From MPC 93583
P/2011 U2 (Bressi),e,9.6958,265.5430,141.9381,5.195828,0.0832189,0.08547197,124.0958,12/16.0/2015,2000,g 10.0,4.0
# From MPC 78186
C/2011 U3 (PANSTARRS),e,116.7303,228.2549,287.7101,2928,0.0000062,0.99963462,0.0000,06/03.5563/2012,2000,g 14.0,4.0
# From MPC 79022
P/2011 UA134 (Spacewatch-PANSTARRS),e,10.5111,40.6469,32.5289,5.593277,0.0745083,0.63113837,109.5900,12/16.0/2015,2000,g 17.5,4.0
# From MPC 88325
C/2011 UF305 (LINEAR),e,94.0007,297.4737,121.9946,3633,0.0000045,0.99941054,0.0000,07/21.4327/2012,2000,g  9.0,4.0
# From MPC 77406
P/2011 V1 (Boattini),e,7.2657,48.8823,268.2083,3.818230,0.1321025,0.56229908,225.9228,12/16.0/2015,2000,g 15.5,4.0
# From MPC 79022
P/2011 VJ5 (Lemmon),e,3.9750,169.9215,315.2724,3.404348,0.1569109,0.55740575,230.2638,12/16.0/2015,2000,g 17.5,4.0
# From MPC 82718
P/2011 W1 (PANSTARRS),e,3.7172,161.8410,282.7742,4.656377,0.0980916,0.28673893,139.6297,12/16.0/2015,2000,g 11.5,4.0
# From MPC 80897
P/2011 W2 (Rinner),e,13.7609,231.9949,221.2977,3.804850,0.1327999,0.39318349,199.2764,12/16.0/2015,2000,g 13.0,4.0
# From MPC 77807
C/2011 W3 (Lovejoy),e,134.6617,326.9564,53.9787,71.24951,0.0016388,0.99991786,0.0000,12/14.9962/2011,2000,g 14.5,4.0
# From MPC 79342
P/2011 Y2 (Boattini),e,6.3546,309.7157,131.6947,6.235446,0.0632999,0.71171141,86.4036,12/16.0/2015,2000,g 15.0,4.0
# From MPC 79342
C/2011 Y3 (Boattini),e,26.5183,84.8323,340.7089,11.80077,0.0243130,0.70286197,38.3575,12/16.0/2015,2000,g  8.0,4.0
# From MPC 93583
C/2012 A1 (PANSTARRS),h,12/04.1194/2013,120.9187,277.9836,192.0659,1.001661,7.604870,2000,6.0,4.0
# From MPC 91611
C/2012 A2 (LINEAR),e,125.8985,191.4217,101.7394,1139,0.0000256,0.99689376,0.0000,11/05.5683/2012,2000,g  8.5,4.0
# From MPC 80898
P/2012 A3 (SOHO),e,11.4573,176.4042,217.7387,2.569993,0.2392247,0.77543645,339.7875,12/16.0/2015,2000,g 17.0,4.0
# From MPC 94669
P/2012 B1 (PANSTARRS),e,7.6232,36.1689,162.2934,6.506678,0.0593834,0.41198721,51.9695,12/16.0/2015,2000,g  9.0,4.0
# From MPC 82719
C/2012 B3 (La Sagra),e,106.9726,252.9866,50.7523,3995,0.0000039,0.99911354,0.0000,12/05.8816/2011,2000,g 10.0,4.0
# From MPC 83519
C/2012 BJ98 (Lemmon),e,2.6374,124.0245,72.9781,17.19313,0.0138252,0.87463564,16.3290,12/16.0/2015,2000,g 12.5,4.0
# From MPC 89309
C/2012 C1 (McNaught),e,96.2696,300.6322,279.9005,2688,0.0000071,0.99820043,0.0000,02/04.9556/2013,2000,g  7.5,4.0
# From MPC 80898
C/2012 C2 (Bruenjes),h,03/13.1635/2012,162.8011,118.0140,62.6683,1.002953,0.799788,2000,17.0,4.0
# From MPC 78590
P/2012 C3 (PANSTARRS),e,9.0920,135.3677,344.9542,9.748681,0.0323806,0.63011148,359.9758,10/06.0/2011,2000,g 13.0,4.0
# From MPC 84022
C/2012 CH17 (MOSS),e,27.7468,125.9610,137.8941,2261,0.0000092,0.99942891,0.0000,09/28.4094/2012,2000,g 11.0,4.0
# From MPC 84022
C/2012 E1 (Hill),e,122.5544,286.3192,48.7882,1171,0.0000246,0.99359383,0.0000,07/01.2159/2011,2000,g  6.5,4.0
# From MPC 79023
C/2012 E2 (SWAN),p,03/15.0314/2012,144.2218,83.3435,0.006952,7.7078,2000,10.0,4.0
# From MPC 82318
C/2012 E3 (PANSTARRS),e,105.5720,5.5016,103.4678,210.8510,0.0003219,0.98183903,0.0000,05/11.5918/2011,2000,g 10.0,4.0
# From MPC 79868
C/2012 F1 (Gibbs),e,159.5518,130.2885,300.7875,71.75528,0.0016215,0.96433300,2.2657,12/16.0/2015,2000,g 14.0,4.0
# From MPC 84931
P/2012 F2 (PANSTARRS),e,14.7317,227.0972,33.1074,6.322858,0.0619918,0.54237357,60.7608,12/16.0/2015,2000,g 12.0,4.0
# From MPC 96864
C/2012 F3 (PANSTARRS),h,04/06.6902/2015,11.3550,164.6111,104.0226,1.002098,3.456824,2000,6.5,4.0
# From MPC 96864
P/2012 F5 (Gibbs),e,9.7399,216.8375,178.1771,3.003504,0.1893485,0.04101872,34.5624,12/16.0/2015,2000,g 12.0,4.0
# From MPC 90766
C/2012 F6 (Lemmon),e,82.6132,332.7417,304.8960,426.0913,0.0001121,0.99829031,0.0000,03/24.5850/2013,2000,g 10.0,4.0
# From MPC 79344
P/2012 G1 (PANSTARRS),e,11.6925,282.5440,286.1149,4.172871,0.1156250,0.38072240,359.9500,06/01.0/2012,2000,g 15.0,4.0
# From MPC 80046
C/2012 H2 (McNaught),e,92.7939,184.0644,295.9269,16.10344,0.0152520,0.89317243,20.1623,12/16.0/2015,2000,g 15.5,4.0
# From MPC 89726
C/2012 J1 (Catalina),h,12/06.7773/2012,34.0911,235.0945,147.4442,1.001970,3.162976,2000,8.0,4.0
# From MPC 96864
C/2012 K1 (PANSTARRS),h,08/27.6868/2014,142.4259,317.7413,203.1229,1.000355,1.054844,2000,5.6,3.2
# From MPC 80898
P/2012 K3 (Gibbs),e,13.2006,125.8752,172.3628,3.619109,0.1431534,0.42420947,167.9470,12/16.0/2015,2000,g 15.0,4.0
# From MPC 88326
C/2012 K5 (LINEAR),e,92.8423,279.1067,139.3461,688.7399,0.0000545,0.99833778,0.0000,11/28.4108/2012,2000,g 12.0,4.0
# From MPC 94278
C/2012 K6 (McNaught),e,135.2211,206.9164,338.8515,1547,0.0000162,0.99783111,0.0000,05/21.0010/2013,2000,g  8.5,4.0
# From MPC 95731
C/2012 K8 (Lemmon),h,08/19.4023/2014,106.1126,312.8051,75.8631,1.000417,6.463509,2000,6.0,4.0
# From MPC 88326
C/2012 L1 (LINEAR),e,87.2335,271.8029,140.2392,617.7278,0.0000642,0.99633592,0.0000,12/24.9314/2012,2000,g 10.5,4.0
# From MPC 88326
C/2012 L2 (LINEAR),e,70.9518,270.3200,205.8426,635.9936,0.0000615,0.99762387,0.0000,05/09.3113/2013,2000,g 10.0,4.0
# From MPC 84023
C/2012 L3 (LINEAR),e,134.1551,53.4582,106.9496,311.0900,0.0001796,0.99022771,0.0000,06/11.6504/2012,2000,g 13.0,4.0
# From MPC 96864
C/2012 LP26 (Palomar),e,25.3801,153.9871,145.1489,10439,0.0000009,0.99937389,0.0000,08/16.5214/2015,2000,g  6.5,4.0
# From MPC 88326
P/2012 NJ (La Sagra),e,84.3801,315.7685,338.3133,8.463088,0.0400323,0.84761488,51.3004,12/16.0/2015,2000,g 14.5,4.0
# From MPC 84625
C/2012 OP (Siding Spring),e,114.8265,267.3392,351.3312,745.2070,0.0000484,0.99516262,0.0000,12/04.0350/2012,2000,g 13.5,2.0
# From MPC 81470
P/2012 O1 (McNaught),e,7.5360,94.3014,236.5205,3.511599,0.1497775,0.60501303,185.3009,12/16.0/2015,2000,g 17.5,4.0
# From MPC 80899
P/2012 O2 (McNaught),e,24.5167,120.7530,183.4958,3.615037,0.1433953,0.53355971,182.5388,12/16.0/2015,2000,g 17.0,4.0
# From MPC 82720
P/2012 O3 (McNaught),e,16.5772,336.4078,344.7053,4.581418,0.1005088,0.64556028,122.6206,12/16.0/2015,2000,g 16.5,4.0
# From MPC 90767
C/2012 Q1 (Kowalski),e,45.2296,184.4289,139.0902,25.99639,0.0074359,0.63548558,10.4796,12/16.0/2015,2000,g  4.0,4.0
# From MPC 89726
C/2012 S1 (ISON),h,11/28.5430/2013,62.1429,295.7600,345.6016,1.000263,0.012911,2000,8.5,3.2
# From MPC 82720
